COSMOS 2251 DEB         
1 34064U 93036KB  17345.85327770  .00000378  00000-0  14115-3 0  9990
2 34064  74.0350 245.3626 0025549 304.2240 125.1839 14.35072318461594
